{"fetched_at":"2026-03-29T02:12:04Z","count":15717,"tles":[{"name":"STARLINK-35124","line1":"1 65511U 25198V   26087.56516005  .00014691  00000+0  50706-3 0  9995","line2":"2 65511  53.1583 183.0584 0000744  37.9269 322.1784 15.30205934 31503","category":"Starlink"}]}