{
  "norad_id": 65511,
  "name": "STARLINK-35124",
  "history": [
    {
      "epoch": "2026-03-28T13:33:49.828320Z",
      "apogee_km": 475.7079250313873,
      "perigee_km": 474.6867782129957,
      "latitude_deg": -5.855976357690077e-06,
      "longitude_deg": 153.6169946768017,
      "height_km": 475.6935847443382,
      "semi_major_axis_km": 6853.334351622191,
      "eccentricity": 7.45e-05,
      "inclination_deg": 53.1583,
      "raan_deg": 183.0584,
      "arg_perigee_deg": 37.9269,
      "mean_anomaly_deg": 322.1784,
      "mean_motion_rev_day": 15.30205934
    }
  ]
}